STARLINK-2443           
1 48107U 21027R   24189.87874050  .00003532  00000+0  25584-3 0  9994
2 48107  53.0564   9.1641 0001580 100.4396 259.6771 15.06406112180386
STARLINK-2447           
1 48110U 21027U   24189.50923220  .00000692  00000+0  65340-4 0  9991
2 48110  53.0564  20.8223 0001351  87.3855 272.7289 15.06398519180195
STARLINK-2448           
1 48111U 21027V   24189.83357578  .00008254  00000+0  57214-3 0  9997
2 48111  53.0559  19.3385 0001367 100.7341 259.3802 15.06412452180240
STARLINK-2449           
1 48112U 21027W   24189.82669946  .00011368  00000+0  78076-3 0  9991
2 48112  53.0553  34.5608 0001457  79.3159 280.7994 15.06403233180023
STARLINK-2450           
1 48113U 21027X   24189.82897798  .00002528  00000+0  18850-3 0  9992
2 48113  53.0552  29.3852 0001414  94.6152 265.4999 15.06411029180096
STARLINK-2452           
1 48115U 21027Z   24189.95153134  .00005254  00000+0  37126-3 0  9993
2 48115  53.0571  18.8466 0001651  97.5701 262.5475 15.06411993180253
STARLINK-2454           
1 48116U 21027AA  24189.29452299  .00002881  00000+0  21223-3 0  9999
2 48116  53.0553  31.7854 0001327  87.1241 272.9900 15.06402118180418
STARLINK-2455           
1 48117U 21027AB  24189.73036086  .00006553  00000+0  45839-3 0  9990
2 48117  53.0556   9.8183 0001308  87.9493 272.1645 15.06399233180364
STARLINK-2458           
1 48118U 21027AC  24189.80870338  .00003558  00000+0  25762-3 0  9990
2 48118  53.0564   9.4798 0001483 100.5570 259.5586 15.06406659180379
STARLINK-2459           
1 48119U 21027AD  24189.87041955  .00003484  00000+0  25258-3 0  9991
2 48119  53.0559   9.1901 0001347  77.8948 282.2192 15.06409852180386
STARLINK-2460           
1 48120U 21027AE  24189.54516896  .00001902  00000+0  14657-3 0  9992
2 48120  53.0554  30.6616 0001494  91.5549 268.5611 15.06400245180052
STARLINK-2462           
1 48121U 21027AF  24189.25121324 -.00001143  00000+0 -57843-4 0  9993
2 48121  53.0546  21.9863 0001303  84.2662 275.8476 15.06400526180541
STARLINK-2463           
1 48122U 21027AG  24189.78059725  .00009041  00000+0  62488-3 0  9990
2 48122  53.0553  14.5760 0001473  84.1746 275.9411 15.06413109180309
STARLINK-2464           
1 48123U 21027AH  24189.79027805  .00003777  00000+0  27227-3 0  9998
2 48123  53.0567   9.5614 0001595  93.0290 267.0881 15.06404008180362
STARLINK-2465           
1 48124U 21027AJ  24189.78936265  .00006472  00000+0  45304-3 0  9998
2 48124  53.0549  19.5652 0001687  87.6995 272.4187 15.06396840180238
STARLINK-2466           
1 48125U 21027AK  24189.86955831  .00002425  00000+0  18160-3 0  9992
2 48125  53.0560  29.4477 0001164  89.5720 270.5402 15.06402394180101
STARLINK-2467           
1 48126U 21027AL  24189.49172006  .00003196  00000+0  23337-3 0  9995
2 48126  53.0552  10.9003 0001497  91.8117 268.3044 15.06397847180325
STARLINK-2468           
1 48127U 21027AM  24189.81424205  .00010782  00000+0  74160-3 0  9992
2 48127  53.0548  29.4527 0001457  88.5245 271.5911 15.06399570180096
STARLINK-2469           
1 48128U 21027AN  24189.79489653  .00008897  00000+0  61526-3 0  9994
2 48128  53.0565 319.6263 0001547  90.0118 270.1048 15.06408521181076
STARLINK-2471           
1 48129U 21027AP  24189.87321767  .00008653  00000+0  59900-3 0  9998
2 48129  53.0550  29.1888 0001521  94.2073 265.9090 15.06406791180104
STARLINK-2472           
1 48130U 21027AQ  24189.84753925  .00005831  00000+0  41888-3 0  9993
2 48130  53.0547  34.8388 0001500  98.5150 261.6009 15.05592638180029
STARLINK-2473           
1 48131U 21027AR  24189.81607780  .00016538  00000+0  11260-2 0  9994
2 48131  53.0551   9.4383 0001247  68.8076 291.3046 15.06417702180371
STARLINK-2474           
1 48132U 21027AS  24189.53042064  .00002238  00000+0  16907-3 0  9998
2 48132  53.0549  30.7273 0001295  92.9167 267.1970 15.06403564180059
STARLINK-2475           
1 48133U 21027AT  24189.26134993 -.00000076  00000+0  13792-4 0  9991
2 48133  53.0552  31.9373 0001372  89.1135 271.0011 15.06391029180419
STARLINK-2476           
1 48134U 21027AU  24189.77737540  .00007556  00000+0  52548-3 0  9995
2 48134  53.0557  29.6180 0001536 104.6778 255.4381 15.06410336180096
STARLINK-2478           
1 48135U 21027AV  24189.84511782  .00001640  00000+0  12890-3 0  9996
2 48135  53.0551  34.4762 0001387  89.8689 270.2459 15.06412348180029
STARLINK-2479           
1 48136U 21027AW  24189.85115991  .00006995  00000+0  48798-3 0  9994
2 48136  53.0550  29.7893 0001297  86.3340 273.7798 15.06401756180099
STARLINK-2480           
1 48137U 21027AX  24189.76078740  .00002508  00000+0  18719-3 0  9991
2 48137  53.0568   9.6658 0001650  82.7882 277.3295 15.06402655180360
STARLINK-2481           
1 48138U 21027AY  24189.78843274  .00001031  00000+0  88074-4 0  9998
2 48138  53.0539  29.5697 0001160  89.8948 270.2174 15.06404991180093
STARLINK-2482           
1 48139U 21027AZ  24189.91190975  .00009792  00000+0  67512-3 0  9992
2 48139  53.0559   9.0149 0001509  90.5201 269.5961 15.06413967180390
