OBJECT_NAME,OBJECT_ID,EPOCH,MEAN_MOTION,ECCENTRICITY,INCLINATION,RA_OF_ASC_NODE,ARG_OF_PERICENTER,MEAN_ANOMALY,EPHEMERIS_TYPE,CLASSIFICATION_TYPE,NORAD_CAT_ID,ELEMENT_SET_NO,REV_AT_EPOCH,BSTAR,MEAN_MOTION_DOT,MEAN_MOTION_DDOT
STARLINK-2443,2021-027R,2024-07-07T21:05:23.179200,15.06406112,.000158,53.0564,9.1641,100.4396,259.6771,0,U,48107,999,18038,.25584E-3,.3532E-4,0
STARLINK-2447,2021-027U,2024-07-07T12:13:17.662080,15.06398519,.0001351,53.0564,20.8223,87.3855,272.7289,0,U,48110,999,18019,.6534E-4,.692E-5,0
STARLINK-2448,2021-027V,2024-07-07T20:00:20.947392,15.06412452,.0001367,53.0559,19.3385,100.7341,259.3802,0,U,48111,999,18024,.57214E-3,.8254E-4,0
STARLINK-2449,2021-027W,2024-07-07T19:50:26.833344,15.06403233,.0001457,53.0553,34.5608,79.3159,280.7994,0,U,48112,999,18002,.78076E-3,.11368E-3,0
STARLINK-2450,2021-027X,2024-07-07T19:53:43.697472,15.06411029,.0001414,53.0552,29.3852,94.6152,265.4999,0,U,48113,999,18009,.1885E-3,.2528E-4,0
STARLINK-2452,2021-027Z,2024-07-07T22:50:12.307776,15.06411993,.0001651,53.0571,18.8466,97.5701,262.5475,0,U,48115,999,18025,.37126E-3,.5254E-4,0
STARLINK-2454,2021-027AA,2024-07-07T07:04:06.786336,15.06402118,.0001327,53.0553,31.7854,87.1241,272.9900,0,U,48116,999,18041,.21223E-3,.2881E-4,0
STARLINK-2455,2021-027AB,2024-07-07T17:31:43.178304,15.06399233,.0001308,53.0556,9.8183,87.9493,272.1645,0,U,48117,999,18036,.45839E-3,.6553E-4,0
STARLINK-2458,2021-027AC,2024-07-07T19:24:31.972032,15.06406659,.0001483,53.0564,9.4798,100.5570,259.5586,0,U,48118,999,18037,.25762E-3,.3558E-4,0
STARLINK-2459,2021-027AD,2024-07-07T20:53:24.249120,15.06409852,.0001347,53.0559,9.1901,77.8948,282.2192,0,U,48119,999,18038,.25258E-3,.3484E-4,0
STARLINK-2460,2021-027AE,2024-07-07T13:05:02.598144,15.06400245,.0001494,53.0554,30.6616,91.5549,268.5611,0,U,48120,999,18005,.14657E-3,.1902E-4,0
STARLINK-2462,2021-027AF,2024-07-07T06:01:44.823936,15.06400526,.0001303,53.0546,21.9863,84.2662,275.8476,0,U,48121,999,18054,-.57843E-4,-.1143E-4,0
STARLINK-2463,2021-027AG,2024-07-07T18:44:03.602400,15.06413109,.0001473,53.0553,14.5760,84.1746,275.9411,0,U,48122,999,18030,.62488E-3,.9041E-4,0
STARLINK-2464,2021-027AH,2024-07-07T18:58:00.023520,15.06404008,.0001595,53.0567,9.5614,93.0290,267.0881,0,U,48123,999,18036,.27227E-3,.3777E-4,0
STARLINK-2465,2021-027AJ,2024-07-07T18:56:40.932960,15.06396840,.0001687,53.0549,19.5652,87.6995,272.4187,0,U,48124,999,18023,.45304E-3,.6472E-4,0
STARLINK-2466,2021-027AK,2024-07-07T20:52:09.837984,15.06402394,.0001164,53.0560,29.4477,89.5720,270.5402,0,U,48125,999,18010,.1816E-3,.2425E-4,0
STARLINK-2467,2021-027AL,2024-07-07T11:48:04.613184,15.06397847,.0001497,53.0552,10.9003,91.8117,268.3044,0,U,48126,999,18032,.23337E-3,.3196E-4,0
STARLINK-2468,2021-027AM,2024-07-07T19:32:30.513120,15.06399570,.0001457,53.0548,29.4527,88.5245,271.5911,0,U,48127,999,18009,.7416E-3,.10782E-3,0
STARLINK-2469,2021-027AN,2024-07-07T19:04:39.060192,15.06408521,.0001547,53.0565,319.6263,90.0118,270.1048,0,U,48128,999,18107,.61526E-3,.8897E-4,0
STARLINK-2471,2021-027AP,2024-07-07T20:57:26.006688,15.06406791,.0001521,53.0550,29.1888,94.2073,265.9090,0,U,48129,999,18010,.599E-3,.8653E-4,0
STARLINK-2472,2021-027AQ,2024-07-07T20:20:27.391200,15.05592638,.00015,53.0547,34.8388,98.5150,261.6009,0,U,48130,999,18002,.41888E-3,.5831E-4,0
STARLINK-2473,2021-027AR,2024-07-07T19:35:09.121920,15.06417702,.0001247,53.0551,9.4383,68.8076,291.3046,0,U,48131,999,18037,.1126E-2,.16538E-3,0
STARLINK-2474,2021-027AS,2024-07-07T12:43:48.343296,15.06403564,.0001295,53.0549,30.7273,92.9167,267.1970,0,U,48132,999,18005,.16907E-3,.2238E-4,0
STARLINK-2475,2021-027AT,2024-07-07T06:16:20.633952,15.06391029,.0001372,53.0552,31.9373,89.1135,271.0011,0,U,48133,999,18041,.13792E-4,-.76E-6,0
STARLINK-2476,2021-027AU,2024-07-07T18:39:25.234560,15.06410336,.0001536,53.0557,29.6180,104.6778,255.4381,0,U,48134,999,18009,.52548E-3,.7556E-4,0
STARLINK-2478,2021-027AV,2024-07-07T20:16:58.179648,15.06412348,.0001387,53.0551,34.4762,89.8689,270.2459,0,U,48135,999,18002,.1289E-3,.164E-4,0
STARLINK-2479,2021-027AW,2024-07-07T20:25:40.216224,15.06401756,.0001297,53.0550,29.7893,86.3340,273.7798,0,U,48136,999,18009,.48798E-3,.6995E-4,0
STARLINK-2480,2021-027AX,2024-07-07T18:15:32.031360,15.06402655,.000165,53.0568,9.6658,82.7882,277.3295,0,U,48137,999,18036,.18719E-3,.2508E-4,0
STARLINK-2481,2021-027AY,2024-07-07T18:55:20.588736,15.06404991,.000116,53.0539,29.5697,89.8948,270.2174,0,U,48138,999,18009,.88074E-4,.1031E-4,0
STARLINK-2482,2021-027AZ,2024-07-07T21:53:09.002400,15.06413967,.0001509,53.0559,9.0149,90.5201,269.5961,0,U,48139,999,18039,.67512E-3,.9792E-4,0
